SL-12 R/B(2)            
1 33111U 08033D   26074.00144300  .00000046  00000+0  00000+0 0  9992
2 33111  10.3836  41.9945 0031476 335.5853 214.8300  1.00275619 64860
INTELSAT 25 (IS-25)     
1 33153U 08034A   26074.06146382 -.00000224  00000+0  00000+0 0  9996
2 33153   2.4631  81.4725 0003239 251.3174 190.4936  1.00270237 64756
ECHOSTAR 11             
1 33207U 08035A   26074.25984466 -.00000057  00000+0  00000+0 0  9995
2 33207   0.7603  85.3116 0002538 257.4268 173.6655  1.00272090 50277
SUPERBIRD-C2            
1 33274U 08038A   26074.02176866 -.00000306  00000+0  00000+0 0  9991
2 33274   2.1164  82.4612 0001824 358.5200 235.4829  1.00274401104788
INMARSAT 4-F3           
1 33278U 08039A   26073.97696347 -.00000138  00000+0  00000+0 0  9993
2 33278   4.2124  31.2382 0002773 335.2550  59.7942  1.00271334 45601
NIMIQ 4                 
1 33373U 08044A   26074.26539135 -.00000221  00000+0  00000+0 0  9992
2 33373   0.0234 117.0056 0002374 240.8580 188.5320  1.00271114 64041
GALAXY 19 (G-19)        
1 33376U 08045A   26074.11979074 -.00000140  00000+0  00000+0 0  9990
2 33376   0.0344 251.8682 0002785 114.7662 112.2031  1.00271572 63965
ASTRA 1M                
1 33436U 08057A   26074.27961642  .00000119  00000+0  00000+0 0  9994
2 33436   0.0577  69.3763 0001613   3.9875 219.3566  1.00273401 44791
FENGYUN 2D DEB          
1 33458U 06053D   26055.99142006 -.00000030  00000+0  00000+0 0  9998
2 33458  11.4621  38.0946 0037969 346.7068 194.2060  1.00249682 64259
EUTELSAT HOTBIRD 13C    
1 33459U 08065A   26074.28754256 -.00000282  00000+0  00000+0 0  9992
2 33459   2.7075  80.3060 0003863 287.3129 218.4855  1.00270387 46401
EXPRESS-AM44            
1 33595U 09007A   26074.27943142 -.00000088  00000+0  00000+0 0  9997
2 33595   3.2206  79.5477 0004204 276.2167 266.7156  1.00272378 51346
NSS-9                   
1 33749U 09008A   26074.24658461  .00000071  00000+0  00000+0 0  9994
2 33749   1.0170  83.5681 0002073 268.1662  92.9497  1.00272934 62579
TELSTAR 11N             
1 34111U 09009A   26074.23757492 -.00000251  00000+0  00000+0 0  9993
2 34111   0.0180 161.1032 0002536 183.1177 236.5825  1.00273051 45301
RADUGA-1 8              
1 34264U 09010A   26074.00144327  .00000100  00000+0  00000+0 0  9998
2 34264  11.9320  42.5872 0010454  19.1444 170.0667  0.99816246 62237
SL-12 R/B(2)            
1 34265U 09010B   26074.23007917 -.00000241  00000+0  00000+0 0  9994
2 34265  11.9257  42.5254 0003909 296.4815 205.3259  1.00000713 62258
WGS F2 (USA 204)        
1 34713U 09017A   26074.22171118  .00000000  00000+0  00000+0 0  9995
2 34713   0.0237 156.5104 0000181 309.2729 204.3663  1.00270458 44678
SES-7 (PROTOSTAR 2)     
1 34941U 09027A   26074.01778365 -.00000346  00000+0  00000+0 0  9997
2 34941   0.0370  79.2383 0001556 240.4285 327.6136  1.00271225 61686
